#aV2012  4 13  0  0  0.00000000     288 DD+AD WGS84 FIT  NGA
## 1683 432000.00000000   300.00000000 56030 0.0000000000000
+   31     1  2  3  4  5  6  7  8  9 10 11 12 13 14 15 16 17
+         18 19 20 21 22 23 25 26 27 28 29 30 31 32  0  0  0
+          0  0  0  0  0  0  0  0  0  0  0  0  0  0  0  0  0
+          0  0  0  0  0  0  0  0  0  0  0  0  0  0  0  0  0
+          0  0  0  0  0  0  0  0  0  0  0  0  0  0  0  0  0
++         2  2  2  2  2  2  2  2  2  2  2  2  2  2  2  2  2
++         2  2  2  2  2  2  2  2  2  2  2  2  2  2  2  0  0
++         0  0  0  0  0  0  0  0  0  0  0  0  0  0  0  0  0
++         0  0  0  0  0  0  0  0  0  0  0  0  0  0  0  0  0
++         0  0  0  0  0  0  0  0  0  0  0  0  0  0  0  0  0
%c cc cc ccc ccc cccc cccc cccc cccc ccccc ccccc ccccc ccccc
%c cc cc ccc ccc cccc cccc cccc cccc ccccc ccccc ccccc ccccc
%f  0.0000000  0.000000000  0.00000000000  0.000000000000000
%f  0.0000000  0.000000000  0.00000000000  0.000000000000000
%i    0    0    0    0      0      0      0      0         0
%i    0    0    0    0      0      0      0      0         0
/*      NGA, ST. LOUIS,MO.                                  
/*   EPHEMERIS COMPUTED FROM  1 DAYS OF DATA
/*   EPOCHA SMOOTHER  
/* CCCCCCCCCCCCCCCCCCCCCCCCCCCCCCCCCCCCCCCCCCCCCCCCCCCCCCCCC
*  2012  4 13 19  5  0.00000000                                                 
P  1 -21179.416903 -11005.198337  11669.786604    247.576306                    
V  1  -8271.184345 -12530.647340 -26781.132415      0.045543                    
P  2  11476.578919  22339.910214   9505.001124    386.542270                    
V  2 -10060.120379  -6711.018262  27764.872579      0.013994                    
P  3  -8260.483424 -14021.035921 -21477.767724     35.490450                    
V  3  24634.355067  -9203.653823  -3263.417320      0.049719                    
P  4    582.781631  19659.914716  17453.356687    152.449599                    
V  4 -17056.271074 -15366.101596  17947.528689      0.113749                    
P  5   4106.845564  21688.775147 -14703.050819   -304.574722                    
V  5  -7911.037439  17111.271432  23190.181572     -0.040828                    
P  6  -3149.928420 -15356.506484 -21301.655867     30.770972                    
V  6  26526.441005  -7087.719026   1471.121476     -0.010648                    
P  7 -17073.822825   1456.791395 -20340.967302     72.369262                    
V  7 -16466.810186 -19824.719459  12147.336331      0.031720                    
P  8  -8184.667781  12534.434937 -21796.525024      1.038397                    
V  8 -17106.916693 -21955.943003  -6736.033795      0.001140                    
P  9  20537.071723  14752.795655   7513.179635    151.273836                    
V  9   5483.353305   8943.074753 -30355.436077      0.025550                    
P 10  -9248.942529  24628.490523   1091.263787    -35.306787                    
V 10  -2882.312923  -2784.524163  31652.265146     -0.011219                    
P 11 -23480.210822 -12471.222622   2397.498533   -251.198398                    
V 11   -408.296273  -5906.163869 -29664.858416     -0.038159                    
P 12  13060.661091   7336.108305  21944.077667     63.321012                    
V 12  -9200.651503  26227.315848  -3106.076477      0.020950                    
P 13 -25754.317105   5666.939880  -3708.672019    213.642351                    
V 13  -4702.701794  -1330.267149  31788.377859     -0.022699                    
P 14  13470.649177 -14273.770266  18001.519140    200.020220                    
V 14  22464.910396  -2037.995240 -18743.475348      0.010750                    
P 15  22446.779787   4682.666802 -13586.494926    -91.431285                    
V 15 -16153.672919   6371.353070 -24294.801205      0.001075                    
P 16  -2537.147870 -21797.722163 -14719.118369   -231.219412                    
V 16   8193.846390 -17019.114555  24080.564484     -0.014148                    
P 17 -15405.719553  14304.820265  16263.309061    136.072929                    
V 17 -20437.218091   1726.162374 -21337.985549     -0.027627                    
P 18  16262.953644 -14433.960436 -14649.389116    190.836040                    
V 18  -3184.468702  19431.354014 -22513.601210      0.018053                    
P 19 -20119.451852  -8378.915856 -15481.921590   -255.249875                    
V 19  19063.220586  -4182.233454 -22185.337791     -0.037464                    
P 20 -15839.839229  -1607.122849  21094.191458     63.215798                    
V 20   6750.543716 -26440.463889   3098.876263      0.000058                    
P 21  15063.551459  -6136.615999 -20595.388276   -217.069347                    
V 21  17827.625351  20664.818255   6143.412500     -0.024840                    
P 22   9961.849547 -24425.792029  -2286.257312    143.314754                    
V 22   2751.974300   4227.360359 -30907.197251     -0.000397                    
P 23 -25633.308903   -254.954189   7675.946745    215.089934                    
V 23   8948.728664  -4223.348255  29494.678352     -0.035675                    
P 25  16349.764040  -8721.152208  18978.512185     32.971249                    
V 25  -5849.615333  23474.885080  15859.722462      0.003257                    
P 26   9505.771131  13288.772800 -21638.399306   -297.948297                    
V 26 -25634.147591   3647.433713  -8922.356884     -0.535298                    
P 27  19939.809132  17827.431600   2612.193217    377.050885                    
V 27    549.431326   2973.252557 -31686.645186      0.040749                    
P 28 -11693.662121  23232.361946  -4203.257552    133.076532                    
V 28   -195.105632  -6539.122330 -31694.278464      0.041665                    
P 29  26093.888067  -4796.010136   -419.614556    303.033158                    
V 29   1082.045985   2649.246539  31825.588418      0.036041                    
P 30   1609.862303 -26016.064175  -5433.197896   -129.263725                    
V 30   4009.141038  -5747.745302  30730.565758     -0.187544                    
P 31  -1551.360652 -19765.459011  17742.755614    230.790371                    
V 31  15687.158494  15762.590029  19375.261303      0.043305                    
P 32 -11452.018330 -11717.651540  21196.836899   -432.276097                    
V 32  10622.881093 -24136.129813  -7212.886124     -0.045216                    
EOF
